{
  "norad_id": 68593,
  "name": "KUIPER-00293",
  "history": [
    {
      "epoch": "2026-04-09T12:13:05.831328Z",
      "apogee_km": 467.31870275765596,
      "perigee_km": 450.83554694546365,
      "latitude_deg": 4.8511291079546077e-05,
      "longitude_deg": 128.10056999685514,
      "height_km": 466.22942956629174,
      "semi_major_axis_km": 6837.21412485156,
      "eccentricity": 0.0012054,
      "inclination_deg": 51.8633,
      "raan_deg": 149.1311,
      "arg_perigee_deg": 140.9919,
      "mean_anomaly_deg": 219.1939,
      "mean_motion_rev_day": 15.35620815
    }
  ]
}